LEMUR-2-AMANDA-SVANTE   
1 48269U 21034B   26068.77637527  .00030872  00000+0  11134-2 0  9996
2 48269  97.5829 144.8625 0002703 205.4721 154.6385 15.28469003265849
STARLINK-31208          
1 59037U 24038Q   26067.91396105 -.00000926  00000+0 -24145-4 0  9994
2 59037  43.0025  31.8631 0001169 253.0933 106.9790 15.27576868114692
